1998-067UG              
1 53769U 98067UG  22252.96290273  .00033781  00000+0  57715-3 0  9990
2 53769  51.6408 276.5790 0001464 309.0996  50.9863 15.50973521   574
1998-067UH              
1 53770U 98067UH  22252.96259623  .00047589  00000+0  80358-3 0  9996
2 53770  51.6407 276.5781 0003305 286.4967  73.5659 15.51141058   574
1998-067UJ              
1 53771U 98067UJ  22252.96250189  .00047689  00000+0  80385-3 0  9996
2 53771  51.6407 276.5761 0003415 287.5866  72.4750 15.51189357   568
1998-067UK              
1 53772U 98067UK  22249.38888889 -.00000459  00000+0  00000+0 0  9990
2 53772  51.6415 294.3126 0001846 293.5129 259.5038 15.50892598    10
